NORAD_CAT_ID,OBJECT_NAME,OBJECT_TYPE,EPOCH,MEAN_MOTION,ECCENTRICITY,INCLINATION,RA_OF_ASC_NODE,ARG_OF_PERICENTER,MEAN_ANOMALY,BSTAR,MEAN_MOTION_DOT,MEAN_MOTION_DDOT,TLE_LINE0,TLE_LINE1,TLE_LINE2,SEMIMAJOR_AXIS,PERIOD,APOGEE,PERIGEE,DECAYED
52118.0,STARLINK-3743,PAYLOAD,2023-06-10 23:52:10,15.08842694,9.48e-05,53.2167,260.3929,86.8141,273.2959,8.9328e-06,-1.46e-06,0.0,0 STARLINK-3743,1 52118U 22029AG  23161.99456180 -.00000146  00000-0  89328-5 0  9994,2 52118  53.2167 260.3929 0000948  86.8141 273.2959 15.08842694 69417,6917.872,95.437,540.393,539.081,0.0
52118.0,STARLINK-3743,PAYLOAD,2023-06-11 06:13:43,15.08835949,0.0001387,53.2174,259.2042,58.7418,301.371,0.00010379,1.364e-05,0.0,0 STARLINK-3743,1 52118U 22029AG  23162.25952766  .00001364  00000-0  10379-3 0  9995,2 52118  53.2174 259.2042 0001387  58.7418 301.3710 15.08835949 69458,6917.893,95.438,540.717,538.798,0.0
52118.0,STARLINK-3743,PAYLOAD,2023-06-11 12:35:15,15.08848833,0.0001065,53.2173,258.0152,75.0626,285.0484,-1.6404e-05,-5.49e-06,0.0,0 STARLINK-3743,1 52118U 22029AG  23162.52448233 -.00000549  00000-0 -16404-4 0  9996,2 52118  53.2173 258.0152 0001065  75.0626 285.0484 15.08848833 69498,6917.853,95.437,540.455,538.982,0.0
52118.0,STARLINK-3743,PAYLOAD,2023-06-12 06:04:30,15.08837789,9.23e-05,53.2164,254.7437,84.7742,275.3356,0.00011045,1.47e-05,0.0,0 STARLINK-3743,1 52118U 22029AG  23163.25312516  .00001470  00000-0  11045-3 0  9998,2 52118  53.2164 254.7437 0000923  84.7742 275.3356 15.08837789 69606,6917.887,95.438,540.391,539.114,0.0
52118.0,STARLINK-3743,PAYLOAD,2023-06-12 12:26:02,15.08844363,0.0001205,53.2163,253.5548,82.3857,277.7272,6.7322e-05,7.84e-06,0.0,0 STARLINK-3743,1 52118U 22029AG  23163.51808239  .00000784  00000-0  67322-4 0  9996,2 52118  53.2163 253.5548 0001205  82.3857 277.7272 15.08844363 69643,6917.867,95.437,540.566,538.898,0.0
52118.0,STARLINK-3743,PAYLOAD,2023-06-13 05:55:17,15.08834453,0.0001104,53.2161,250.2841,76.3754,283.7361,3.5305e-05,2.74e-06,0.0,0 STARLINK-3743,1 52118U 22029AG  23164.24672905  .00000274  00000-0  35305-4 0  9996,2 52118  53.2161 250.2841 0001104  76.3754 283.7361 15.08834453 69755,6917.897,95.438,540.526,538.999,0.0
52118.0,STARLINK-3743,PAYLOAD,2023-06-14 05:46:04,15.08840089,0.0001111,53.2163,245.8229,82.5604,277.5514,3.5579e-05,2.78e-06,0.0,0 STARLINK-3743,1 52118U 22029AG  23165.24032595  .00000278  00000-0  35579-4 0  9999,2 52118  53.2163 245.8229 0001111  82.5604 277.5514 15.08840089 69908,6917.88,95.438,540.514,538.977,0.0
52118.0,STARLINK-3743,PAYLOAD,2023-06-15 10:23:01,15.08834351,0.0001187,53.217,240.4704,96.9498,263.1629,8.0521e-06,-1.6e-06,0.0,0 STARLINK-3743,1 52118U 22029AG  23166.43265067 -.00000160  00000-0  80521-5 0  9992,2 52118  53.2170 240.4704 0001187  96.9498 263.1629 15.08834351 70082,6917.898,95.438,540.584,538.942,0.0
52118.0,STARLINK-3743,PAYLOAD,2023-06-15 11:58:24,15.0883437,0.0001258,53.2175,240.1734,102.5176,257.5957,2.5431e-05,1.17e-06,0.0,0 STARLINK-3743,1 52118U 22029AG  23166.49889031  .00000117  00000-0  25431-4 0  9990,2 52118  53.2175 240.1734 0001258 102.5176 257.5957 15.08834370 70096,6917.898,95.438,540.633,538.892,0.0
52118.0,STARLINK-3743,PAYLOAD,2023-06-16 10:13:47,15.08849161,0.0001228,53.2168,236.0098,101.0411,259.072,0.00012068,1.634e-05,0.0,0 STARLINK-3743,1 52118U 22029AG  23167.42623865  .00001634  00000-0  12068-3 0  9991,2 52118  53.2168 236.0098 0001228 101.0411 259.0720 15.08849161 70233,6917.852,95.437,540.567,538.868,0.0
52118.0,STARLINK-3743,PAYLOAD,2023-06-16 13:24:33,15.08851663,0.0001203,53.217,235.4156,100.1969,259.9159,0.00014525,2.025e-05,0.0,0 STARLINK-3743,1 52118U 22029AG  23167.55871627  .00002025  00000-0  14525-3 0  9991,2 52118  53.2170 235.4156 0001203 100.1969 259.9159 15.08851663 70252,6917.845,95.437,540.542,538.878,0.0
52118.0,STARLINK-3743,PAYLOAD,2023-06-16 14:59:55,15.08855507,0.0001234,53.2169,235.1175,101.1047,259.0084,0.00017624,2.519e-05,0.0,0 STARLINK-3743,1 52118U 22029AG  23167.62495281  .00002519  00000-0  17624-3 0  9998,2 52118  53.2169 235.1175 0001234 101.1047 259.0084 15.08855507 70260,6917.833,95.437,540.552,538.844,0.0
52118.0,STARLINK-3743,PAYLOAD,2023-06-17 05:18:27,15.08817832,7.47e-05,53.2165,232.4414,81.8151,278.2926,-5.0102e-05,-1.084e-05,0.0,0 STARLINK-3743,1 52118U 22029AG  23168.22114643 -.00001084  00000-0 -50102-4 0  9992,2 52118  53.2165 232.4414 0000747  81.8151 278.2926 15.08817832 70357,6917.948,95.439,540.33,539.296,0.0
52118.0,STARLINK-3743,PAYLOAD,2023-06-17 08:29:13,15.0881187,5.33e-05,53.2144,231.8429,109.8941,250.2109,0.00015882,2.239e-05,0.0,0 STARLINK-3743,1 52118U 22029AG  23168.35362490  .00002239  00000-0  15882-3 0  9997,2 52118  53.2144 231.8429 0000533 109.8941 250.2109 15.08811870 70375,6917.966,95.439,540.2,539.463,0.0
52118.0,STARLINK-3743,PAYLOAD,2023-06-17 11:39:58,15.08823869,0.0001068,53.2153,231.2515,101.3508,258.7604,-0.00013147,-2.379e-05,0.0,0 STARLINK-3743,1 52118U 22029AG  23168.48609808 -.00002379  00000-0 -13147-3 0  9997,2 52118  53.2153 231.2515 0001068 101.3508 258.7604 15.08823869 70391,6917.93,95.439,540.534,539.056,0.0
52118.0,STARLINK-3743,PAYLOAD,2023-06-17 21:12:17,15.08829244,0.0001045,53.2152,229.4669,100.1826,259.9284,-2.3445e-05,-6.61e-06,0.0,0 STARLINK-3743,1 52118U 22029AG  23168.88353899 -.00000661  00000-0 -23445-4 0  9992,2 52118  53.2152 229.4669 0001045 100.1826 259.9284 15.08829244 70451,6917.913,95.438,540.501,539.055,0.0
52118.0,STARLINK-3743,PAYLOAD,2023-06-18 11:30:46,15.08836643,0.0001007,53.2145,226.7905,101.5695,258.541,0.00016399,2.323e-05,0.0,0 STARLINK-3743,1 52118U 22029AG  23169.47969952  .00002323  00000-0  16399-3 0  9995,2 52118  53.2145 226.7905 0001007 101.5695 258.5410 15.08836643 70540,6917.891,95.438,540.452,539.059,0.0
52118.0,STARLINK-3743,PAYLOAD,2023-06-18 21:03:05,15.08841674,9.91e-05,53.2142,225.0065,102.8176,257.2927,0.00047444,7.271e-05,0.0,0 STARLINK-3743,1 52118U 22029AG  23169.87714126  .00007271  00000-0  47444-3 0  9992,2 52118  53.2142 225.0065 0000991 102.8176 257.2927 15.08841674 70601,6917.875,95.437,540.426,539.055,0.0
52118.0,STARLINK-3743,PAYLOAD,2023-06-19 09:46:09,15.08858765,9.64e-05,53.2135,222.6273,103.0964,257.0136,0.00068139,0.00010579,0.0,0 STARLINK-3743,1 52118U 22029AG  23170.40705560  .00010579  00000-0  68139-3 0  9994,2 52118  53.2135 222.6273 0000964 103.0964 257.0136 15.08858765 70682,6917.823,95.436,540.355,539.021,0.0
52118.0,STARLINK-3743,PAYLOAD,2023-06-19 20:53:51,15.08852055,7.77e-05,53.2123,220.5456,104.4274,255.6805,0.00023109,3.393e-05,0.0,0 STARLINK-3743,1 52118U 22029AG  23170.87073336  .00003393  00000-0  23109-3 0  9998,2 52118  53.2123 220.5456 0000777 104.4274 255.6805 15.08852055 70751,6917.844,95.437,540.246,539.171,0.0
52118.0,STARLINK-3743,PAYLOAD,2023-06-20 09:36:56,15.08846239,0.0001023,53.2139,218.1667,95.2712,264.8397,0.00011177,1.492e-05,0.0,0 STARLINK-3743,1 52118U 22029AG  23171.40065501  .00001492  00000-0  11177-3 0  9993,2 52118  53.2139 218.1667 0001023  95.2712 264.8397 15.08846239 70838,6917.861,95.437,540.434,539.019,0.0
52118.0,STARLINK-3743,PAYLOAD,2023-06-21 09:27:43,15.0885008,0.0001044,53.2151,213.7065,95.9744,264.1367,7.6175e-05,9.25e-06,0.0,0 STARLINK-3743,1 52118U 22029AG  23172.39425006  .00000925  00000-0  76175-4 0  9992,2 52118  53.2151 213.7065 0001044  95.9744 264.1367 15.08850080 70985,6917.85,95.437,540.437,538.992,0.0
52118.0,STARLINK-3743,PAYLOAD,2023-06-22 02:56:57,15.08841623,9.95e-05,53.2142,210.4353,83.3713,276.7392,0.00011689,1.573e-05,0.0,0 STARLINK-3743,1 52118U 22029AG  23173.12289348  .00001573  00000-0  11689-3 0  9999,2 52118  53.2142 210.4353 0000995  83.3713 276.7392 15.08841623 71093,6917.875,95.437,540.429,539.052,0.0
52118.0,STARLINK-3743,PAYLOAD,2023-06-23 09:09:17,15.08844106,9.69e-05,53.2157,204.7856,90.4419,269.6684,8.1794e-05,1.014e-05,0.0,0 STARLINK-3743,1 52118U 22029AG  23174.38145092  .00001014  00000-0  81794-4 0  9990,2 52118  53.2157 204.7856 0000969  90.4419 269.6684 15.08844106 71281,6917.868,95.437,540.403,539.062,0.0
52118.0,STARLINK-3743,PAYLOAD,2023-06-24 02:38:32,15.08833096,9.46e-05,53.2157,201.5145,88.5167,271.5933,4.6124e-05,4.46e-06,0.0,0 STARLINK-3743,1 52118U 22029AG  23175.11009924  .00000446  00000-0  46124-4 0  9991,2 52118  53.2157 201.5145 0000946  88.5167 271.5933 15.08833096 71397,6917.901,95.438,540.421,539.112,0.0
52118.0,STARLINK-3743,PAYLOAD,2023-06-25 08:50:53,15.08825385,0.0001108,53.2165,195.865,90.1655,269.9464,-7.9751e-05,-1.556e-05,0.0,0 STARLINK-3743,1 52118U 22029AG  23176.36867384 -.00001556  00000-0 -79751-4 0  9998,2 52118  53.2165 195.8650 0001108  90.1655 269.9464 15.08825385 71587,6917.925,95.438,540.557,539.024,0.0
52118.0,STARLINK-3743,PAYLOAD,2023-06-26 02:20:08,15.08828769,0.0001207,53.2167,192.5941,91.1032,269.0098,1.5701e-05,-3.8e-07,0.0,0 STARLINK-3743,1 52118U 22029AG  23177.09731509 -.00000038  00000-0  15701-4 0  9996,2 52118  53.2167 192.5941 0001207  91.1032 269.0098 15.08828769 71691,6917.915,95.438,540.615,538.945,0.0
52118.0,STARLINK-3743,PAYLOAD,2023-06-27 06:57:04,15.08831914,9.92e-05,53.2148,187.2399,92.8132,267.2973,0.00017468,2.493e-05,0.0,0 STARLINK-3743,1 52118U 22029AG  23178.28963608  .00002493  00000-0  17468-3 0  9992,2 52118  53.2148 187.2399 0000992  92.8132 267.2973 15.08831914 71875,6917.905,95.438,540.456,539.084,0.0
52118.0,STARLINK-3743,PAYLOAD,2023-06-28 06:47:51,15.08843167,9.76e-05,53.2151,182.7794,91.5885,268.5219,0.00017578,2.511e-05,0.0,0 STARLINK-3743,1 52118U 22029AG  23179.28323314  .00002511  00000-0  17578-3 0  9990,2 52118  53.2151 182.7794 0000976  91.5885 268.5219 15.08843167 72029,6917.871,95.437,540.411,539.061,0.0
52118.0,STARLINK-3743,PAYLOAD,2023-06-29 09:49:23,15.08854805,9.73e-05,53.2151,177.7241,90.3314,269.779,0.00015509,2.182e-05,0.0,0 STARLINK-3743,1 52118U 22029AG  23180.40930116  .00002182  00000-0  15509-3 0  9996,2 52118  53.2151 177.7241 0000973  90.3314 269.7790 15.08854805 72197,6917.835,95.437,540.373,539.027,0.0
